[{"OBJECT_NAME":"STARLINK-5317","OBJECT_ID":"2023-010Q","EPOCH":"2026-03-09T22:25:22.359648","MEAN_MOTION":14.98332531,"ECCENTRICITY":0.00032076,"INCLINATION":70.0002,"RA_OF_ASC_NODE":43.7962,"ARG_OF_PERICENTER":268.2571,"MEAN_ANOMALY":91.822,"EPHEMERIS_TYPE":0,"CLASSIFICATION_TYPE":"U","NORAD_CAT_ID":55283,"ELEMENT_SET_NO":999,"REV_AT_EPOCH":17281,"BSTAR":3.48302e-6,"MEAN_MOTION_DOT":-5.1e-7,"MEAN_MOTION_DDOT":0},{"OBJECT_NAME":"QPS-SAR-14 (YACHIHOKO-I)","OBJECT_ID":"2025-252A","EPOCH":"2026-03-09T23:58:05.760192","MEAN_MOTION":14.98763566,"ECCENTRICITY":0.00075988,"INCLINATION":42.0055,"RA_OF_ASC_NODE":316.7582,"ARG_OF_PERICENTER":330.3293,"MEAN_ANOMALY":29.71,"EPHEMERIS_TYPE":0,"CLASSIFICATION_TYPE":"U","NORAD_CAT_ID":66316,"ELEMENT_SET_NO":999,"REV_AT_EPOCH":1862,"BSTAR":0.00051193076,"MEAN_MOTION_DOT":6.093e-5,"MEAN_MOTION_DDOT":0}]
